NORAD_CAT_ID,OBJECT_NAME,OBJECT_TYPE,EPOCH,MEAN_MOTION,ECCENTRICITY,INCLINATION,RA_OF_ASC_NODE,ARG_OF_PERICENTER,MEAN_ANOMALY,BSTAR,MEAN_MOTION_DOT,MEAN_MOTION_DDOT,TLE_LINE0,TLE_LINE1,TLE_LINE2,SEMIMAJOR_AXIS,PERIOD,APOGEE,PERIGEE,DECAYED
49755.0,STARLINK-3210,PAYLOAD,2023-01-28 21:53:00,15.08845055,0.0001158,53.2158,207.8235,91.4978,268.6146,2.6375e-05,1.32e-06,0.0,0 STARLINK-3210,1 49755U 21115AH  23028.91181212  .00000132  00000-0  26375-4 0  9993,2 49755  53.2158 207.8235 0001158  91.4978 268.6146 15.08845055 65180,6917.865,95.437,540.531,538.929,0.0
49755.0,STARLINK-3210,PAYLOAD,2023-01-29 12:11:29,15.08832906,0.0001133,53.216,205.1472,90.4189,269.6933,4.6608e-05,4.54e-06,0.0,0 STARLINK-3210,1 49755U 21115AH  23029.50797974  .00000454  00000-0  46608-4 0  9995,2 49755  53.2160 205.1472 0001133  90.4189 269.6933 15.08832906 65279,6917.902,95.438,540.551,538.983,0.0
49755.0,STARLINK-3210,PAYLOAD,2023-01-29 21:43:48,15.0883762,0.0001135,53.2161,203.3628,89.2561,270.8561,5.3624e-05,5.66e-06,0.0,0 STARLINK-3210,1 49755U 21115AH  23029.90541737  .00000566  00000-0  53624-4 0  9993,2 49755  53.2161 203.3628 0001135  89.2561 270.8561 15.08837620 64228,6917.888,95.438,540.538,538.967,0.0
49755.0,STARLINK-3210,PAYLOAD,2023-01-30 12:02:16,15.08834117,0.0001136,53.2162,200.6863,88.8162,271.296,-7.9856e-06,-4.15e-06,0.0,0 STARLINK-3210,1 49755U 21115AH  23030.50158313 -.00000415  00000-0 -79856-5 0  9996,2 49755  53.2162 200.6863 0001136  88.8162 271.2960 15.08834117 64319,6917.898,95.438,540.549,538.977,0.0
49755.0,STARLINK-3210,PAYLOAD,2023-01-31 03:56:07,15.08837489,0.0001119,53.2164,197.7126,90.6415,269.4706,1.6785e-05,-2.1e-07,0.0,0 STARLINK-3210,1 49755U 21115AH  23031.16398136 -.00000021  00000-0  16785-4 0  9991,2 49755  53.2164 197.7126 0001119  90.6415 269.4706 15.08837489 65528,6917.888,95.438,540.527,538.979,0.0
49755.0,STARLINK-3210,PAYLOAD,2023-01-31 11:53:03,15.08836139,0.0001138,53.2166,196.2259,94.2205,265.8917,6.5182e-05,7.5e-06,0.0,0 STARLINK-3210,1 49755U 21115AH  23031.49518184  .00000750  00000-0  65182-4 0  9997,2 49755  53.2166 196.2259 0001138  94.2205 265.8917 15.08836139 64466,6917.892,95.438,540.544,538.97,0.0
49755.0,STARLINK-3210,PAYLOAD,2023-02-01 10:08:27,15.08838057,0.000106,53.2171,192.0632,93.5281,266.5832,8.5565e-05,1.074e-05,0.0,0 STARLINK-3210,1 49755U 21115AH  23032.42254115  .00001074  00000-0  85565-4 0  9999,2 49755  53.2171 192.0632 0001060  93.5281 266.5832 15.08838057 65715,6917.886,95.438,540.485,539.018,0.0
49755.0,STARLINK-3210,PAYLOAD,2023-02-02 09:59:14,15.08838731,0.0001138,53.2163,187.6022,91.9329,268.1793,3.5939e-05,2.84e-06,0.0,0 STARLINK-3210,1 49755U 21115AH  23033.41614293  .00000284  00000-0  35939-4 0  9998,2 49755  53.2163 187.6022 0001138  91.9329 268.1793 15.08838731 64756,6917.884,95.438,540.537,538.962,0.0
49755.0,STARLINK-3210,PAYLOAD,2023-02-02 19:31:33,15.08841989,0.0001261,53.2135,185.8155,100.4893,259.6241,5.4681e-05,5.83e-06,0.0,0 STARLINK-3210,1 49755U 21115AH  23033.81357956  .00000583  00000-0  54681-4 0  9999,2 49755  53.2135 185.8155 0001261 100.4893 259.6241 15.08841989 65923,6917.874,95.437,540.612,538.867,0.0
49755.0,STARLINK-3210,PAYLOAD,2023-02-03 09:50:01,15.08836366,0.0001382,53.2153,183.1432,83.3386,276.7764,2.9844e-05,1.87e-06,0.0,0 STARLINK-3210,1 49755U 21115AH  23034.40974472  .00000187  00000-0  29844-4 0  9996,2 49755  53.2153 183.1432 0001382  83.3386 276.7764 15.08836366 66016,6917.891,95.438,540.713,538.8,0.0
49755.0,STARLINK-3210,PAYLOAD,2023-02-03 19:22:20,15.08837964,0.0001426,53.2152,181.3589,83.4184,276.6971,4.143e-05,3.71e-06,0.0,0 STARLINK-3210,1 49755U 21115AH  23034.80718403  .00000371  00000-0  41430-4 0  9990,2 49755  53.2152 181.3589 0001426  83.4184 276.6971 15.08837964 64960,6917.887,95.438,540.738,538.765,0.0
49755.0,STARLINK-3210,PAYLOAD,2023-02-04 14:26:57,15.08842971,0.000131,53.2148,177.7912,81.1057,279.0083,4.6311e-05,4.49e-06,0.0,0 STARLINK-3210,1 49755U 21115AH  23035.60206009  .00000449  00000-0  46311-4 0  9992,2 49755  53.2148 177.7912 0001310  81.1057 279.0083 15.08842971 66192,6917.871,95.437,540.643,538.83,0.0
49755.0,STARLINK-3210,PAYLOAD,2023-02-04 19:13:07,15.08842726,0.000125,53.2147,176.8985,87.3228,272.7907,6.1566e-05,6.92e-06,0.0,0 STARLINK-3210,1 49755U 21115AH  23035.80077918  .00000692  00000-0  61566-4 0  9998,2 49755  53.2147 176.8985 0001250  87.3228 272.7907 15.08842726 65116,6917.872,95.437,540.602,538.872,0.0
49755.0,STARLINK-3210,PAYLOAD,2023-02-05 14:17:46,15.0882406,0.0001159,53.2154,173.3291,105.8488,254.2632,-4.9244e-05,-1.071e-05,0.0,0 STARLINK-3210,1 49755U 21115AH  23036.59568029 -.00001071  00000-0 -49244-4 0  9996,2 49755  53.2154 173.3291 0001159 105.8488 254.2632 15.08824060 66345,6917.929,95.439,540.596,538.992,0.0
49755.0,STARLINK-3210,PAYLOAD,2023-02-05 19:03:56,15.0882898,0.0001074,53.2159,172.4375,99.946,260.1654,-2.3579e-05,-6.63e-06,0.0,0 STARLINK-3210,1 49755U 21115AH  23036.79439832 -.00000663  00000-0 -23579-4 0  9996,2 49755  53.2159 172.4375 0001074  99.9460 260.1654 15.08828980 65267,6917.914,95.438,540.522,539.036,0.0
49755.0,STARLINK-3210,PAYLOAD,2023-02-06 01:25:28,15.08834844,0.000109,53.2164,171.2482,106.3937,253.7175,5.5839e-05,6.01e-06,0.0,0 STARLINK-3210,1 49755U 21115AH  23037.05935354  .00000601  00000-0  55839-4 0  9990,2 49755  53.2164 171.2482 0001090 106.3937 253.7175 15.08834844 66419,6917.896,95.438,540.515,539.007,0.0
49755.0,STARLINK-3210,PAYLOAD,2023-02-06 09:22:23,15.08846731,9.78e-05,53.2163,169.7609,106.3447,253.7653,0.00013069,1.793e-05,0.0,0 STARLINK-3210,1 49755U 21115AH  23037.39054647  .00001793  00000-0  13069-3 0  9995,2 49755  53.2163 169.7609 0000978 106.3447 253.7653 15.08846731 66465,6917.86,95.437,540.401,539.048,0.0
49755.0,STARLINK-3210,PAYLOAD,2023-02-06 14:08:32,15.08851878,0.0001138,53.2171,168.868,118.2081,241.9026,0.00037602,5.703e-05,0.0,0 STARLINK-3210,1 49755U 21115AH  23037.58926474  .00005703  00000-0  37602-3 0  9996,2 49755  53.2171 168.8680 0001138 118.2081 241.9026 15.08851878 65389,6917.844,95.437,540.496,538.922,0.0
49755.0,STARLINK-3210,PAYLOAD,2023-02-06 18:54:41,15.0886597,0.0001143,53.2166,167.9762,111.7661,248.3453,0.00047359,7.263e-05,0.0,0 STARLINK-3210,1 49755U 21115AH  23037.78797855  .00007263  00000-0  47359-3 0  9990,2 49755  53.2166 167.9762 0001143 111.7661 248.3453 15.08865970 66522,6917.801,95.436,540.457,538.875,0.0
49755.0,STARLINK-3210,PAYLOAD,2023-02-07 13:59:19,15.08852559,0.0001703,53.2177,164.4068,128.3892,231.7253,0.00012602,1.719e-05,0.0,0 STARLINK-3210,1 49755U 21115AH  23038.58286111  .00001719  00000-0  12602-3 0  9990,2 49755  53.2177 164.4068 0001703 128.3892 231.7253 15.08852559 65530,6917.842,95.437,540.885,538.529,0.0
49755.0,STARLINK-3210,PAYLOAD,2023-02-07 15:34:42,15.08856874,0.0001077,53.2167,164.1111,97.0065,263.105,0.0003397,5.125e-05,0.0,0 STARLINK-3210,1 49755U 21115AH  23038.64910220  .00005125  00000-0  33970-3 0  9998,2 49755  53.2167 164.1111 0001077  97.0065 263.1050 15.08856874 66655,6917.829,95.436,540.439,538.949,0.0
49755.0,STARLINK-3210,PAYLOAD,2023-02-08 07:28:34,15.08826087,0.0001203,53.2158,161.1365,100.7108,259.402,-0.00046924,-7.745e-05,0.0,0 STARLINK-3210,1 49755U 21115AH  23039.31150693 -.00007745  00000-0 -46924-3 0  9998,2 49755  53.2158 161.1365 0001203 100.7108 259.4020 15.08826087 66753,6917.923,95.438,540.62,538.956,0.0
49755.0,STARLINK-3210,PAYLOAD,2023-02-08 13:50:06,15.08831827,0.0001612,53.2171,159.9483,97.7204,262.3971,0.0004536,6.937e-05,0.0,0 STARLINK-3210,1 49755U 21115AH  23039.57646839  .00006937  00000-0  45360-3 0  9991,2 49755  53.2171 159.9483 0001612  97.7204 262.3971 15.08831827 65687,6917.905,95.438,540.886,538.655,0.0
49755.0,STARLINK-3210,PAYLOAD,2023-02-08 15:25:29,15.08838118,0.0001546,53.217,159.6511,98.7016,261.4151,0.00087108,0.00013602,0.0,0 STARLINK-3210,1 49755U 21115AH  23039.64270824  .00013602  00000-0  87108-3 0  9999,2 49755  53.2170 159.6511 0001546  98.7016 261.4151 15.08838118 66808,6917.886,95.438,540.821,538.682,0.0
49755.0,STARLINK-3210,PAYLOAD,2023-02-09 07:19:21,15.08845931,0.0001722,53.2175,156.6787,92.7608,267.3581,0.0010746,0.00016858,0.0,0 STARLINK-3210,1 49755U 21115AH  23040.30511298  .00016858  00000-0  10746-2 0  9996,2 49755  53.2175 156.6787 0001722  92.7608 267.3581 15.08845931 66906,6917.862,95.437,540.919,538.536,0.0
49755.0,STARLINK-3210,PAYLOAD,2023-02-09 15:16:16,15.08868969,0.0001596,53.2166,155.1921,93.4696,266.6479,0.0015698,0.00024804,0.0,0 STARLINK-3210,1 49755U 21115AH  23040.63630733  .00024804  00000-0  15698-2 0  9999,2 49755  53.2166 155.1921 0001596  93.4696 266.6479 15.08868969 66953,6917.792,95.436,540.761,538.553,0.0
49755.0,STARLINK-3210,PAYLOAD,2023-02-10 00:48:35,15.08859105,0.000157,53.217,153.4071,79.4878,280.6291,0.0010014,0.00015694,0.0,0 STARLINK-3210,1 49755U 21115AH  23041.03374670  .00015694  00000-0  10014-2 0  9993,2 49755  53.2170 153.4071 0001570  79.4878 280.6291 15.08859105 67011,6917.822,95.436,540.773,538.601,0.0
49755.0,STARLINK-3210,PAYLOAD,2023-02-10 11:56:17,15.08833067,0.0001126,53.2172,151.3269,77.6376,282.4742,0.00095196,0.00014892,0.0,0 STARLINK-3210,1 49755U 21115AH  23041.49742997  .00014892  00000-0  95196-3 0  9998,2 49755  53.2172 151.3269 0001126  77.6376 282.4742 15.08833067 67086,6917.902,95.438,540.546,538.988,0.0
49755.0,STARLINK-3210,PAYLOAD,2023-02-10 13:31:41,15.08837009,0.0001714,53.217,151.0297,76.8216,283.2967,0.0011534,0.00018115,0.0,0 STARLINK-3210,1 49755U 21115AH  23041.56367112  .00018115  00000-0  11534-2 0  9993,2 49755  53.2170 151.0297 0001714  76.8216 283.2967 15.08837009 65984,6917.89,95.438,540.94,538.569,0.0
49755.0,STARLINK-3210,PAYLOAD,2023-02-11 00:39:23,15.08843361,0.0001604,53.2167,148.9493,72.758,287.3587,0.00086226,0.00013463,0.0,0 STARLINK-3210,1 49755U 21115AH  23042.02735255  .00013463  00000-0  86226-3 0  9994,2 49755  53.2167 148.9493 0001604  72.7580 287.3587 15.08843361 66050,6917.87,95.437,540.845,538.625,0.0
